{
  "type": "FeatureCollection",
  "features": [
    {
      "type": "Feature",
      "properties": {
        "norad_id": 34314,
        "name": "COSMOS 2251 DEB",
        "group": "cosmos-2251-debris",
        "lat": 33.11150606812188,
        "lon": 105.17288102413173,
        "alt_km": 850.5299826041828,
        "timestamp": "2025-12-19T16:54:44.657179+00:00",
        "meta_object_name": "COSMOS 2251 DEB",
        "meta_object_id": "1993-036NL",
        "meta_epoch": "2025-12-19T06:50:09.004416",
        "meta_mean_motion": 14.17438356,
        "meta_eccentricity": 0.01031464,
        "meta_inclination": 74.0058,
        "meta_ra_of_asc_node": 296.7029,
        "meta_arg_of_pericenter": 40.8278,
        "meta_mean_anomaly": 121.7164,
        "meta_ephemeris_type": 0,
        "meta_classification_type": "U",
        "meta_norad_cat_id": 34314,
        "meta_element_set_no": 999,
        "meta_rev_at_epoch": 86750,
        "meta_bstar": 0.00052070367,
        "meta_mean_motion_dot": 1.087e-05,
        "meta_mean_motion_ddot": 0,
        "tle_line1": "1 34314U 93036NL  25353.28482644  .00001087  00000+0  52070-3 0  9994",
        "tle_line2": "2 34314  74.0058 296.7029 0103146  40.8278 121.7164 14.17438356867500"
      },
      "geometry": {
        "type": "Point",
        "coordinates": [
          105.17288102413173,
          33.11150606812188
        ]
      }
    },
    {
      "type": "Feature",
      "properties": {
        "norad_id": 34316,
        "name": "COSMOS 2251 DEB",
        "group": "cosmos-2251-debris",
        "lat": 39.90585616804427,
        "lon": -23.241091505134005,
        "alt_km": 582.0880351740052,
        "timestamp": "2025-12-19T16:54:44.657190+00:00",
        "meta_object_name": "COSMOS 2251 DEB",
        "meta_object_id": "1993-036NN",
        "meta_epoch": "2025-12-18T23:01:26.983776",
        "meta_mean_motion": 14.92011768,
        "meta_eccentricity": 0.00087608,
        "meta_inclination": 74.0646,
        "meta_ra_of_asc_node": 324.4272,
        "meta_arg_of_pericenter": 46.1076,
        "meta_mean_anomaly": 314.0829,
        "meta_ephemeris_type": 0,
        "meta_classification_type": "U",
        "meta_norad_cat_id": 34316,
        "meta_element_set_no": 999,
        "meta_rev_at_epoch": 89302,
        "meta_bstar": 0.0012273883,
        "meta_mean_motion_dot": 0.00012442,
        "meta_mean_motion_ddot": 0,
        "tle_line1": "1 34316U 93036NN  25352.95934009  .00012442  00000+0  12274-2 0  9994",
        "tle_line2": "2 34316  74.0646 324.4272 0008760  46.1076 314.0829 14.92011768893023"
      },
      "geometry": {
        "type": "Point",
        "coordinates": [
          -23.241091505134005,
          39.90585616804427
        ]
      }
    },
    {
      "type": "Feature",
      "properties": {
        "norad_id": 34317,
        "name": "COSMOS 2251 DEB",
        "group": "cosmos-2251-debris",
        "lat": -28.683538026197176,
        "lon": -146.63089693344855,
        "alt_km": 1259.0718222737923,
        "timestamp": "2025-12-19T16:54:44.657201+00:00",
        "meta_object_name": "COSMOS 2251 DEB",
        "meta_object_id": "1993-036NP",
        "meta_epoch": "2025-12-19T03:50:19.925376",
        "meta_mean_motion": 13.65128519,
        "meta_eccentricity": 0.0336748,
        "meta_inclination": 73.9244,
        "meta_ra_of_asc_node": 25.1887,
        "meta_arg_of_pericenter": 13.2059,
        "meta_mean_anomaly": 41.8033,
        "meta_ephemeris_type": 0,
        "meta_classification_type": "U",
        "meta_norad_cat_id": 34317,
        "meta_element_set_no": 999,
        "meta_rev_at_epoch": 83707,
        "meta_bstar": 0.00042049595,
        "meta_mean_motion_dot": 4.8e-06,
        "meta_mean_motion_ddot": 0,
        "tle_line1": "1 34317U 93036NP  25353.15995284  .00000480  00000+0  42050-3 0  9995",
        "tle_line2": "2 34317  73.9244  25.1887 0336748  13.2059  41.8033 13.65128519837076"
      },
      "geometry": {
        "type": "Point",
        "coordinates": [
          -146.63089693344855,
          -28.683538026197176
        ]
      }
    },
    {
      "type": "Feature",
      "properties": {
        "norad_id": 34321,
        "name": "COSMOS 2251 DEB",
        "group": "cosmos-2251-debris",
        "lat": -40.344770105918094,
        "lon": -22.64387894010387,
        "alt_km": 724.2615401977555,
        "timestamp": "2025-12-19T16:54:44.657211+00:00",
        "meta_object_name": "COSMOS 2251 DEB",
        "meta_object_id": "1993-036NT",
        "meta_epoch": "2025-12-18T18:53:41.983872",
        "meta_mean_motion": 14.50080757,
        "meta_eccentricity": 0.0015949,
        "meta_inclination": 74.0277,
        "meta_ra_of_asc_node": 144.9991,
        "meta_arg_of_pericenter": 274.2278,
        "meta_mean_anomaly": 201.0433,
        "meta_ephemeris_type": 0,
        "meta_classification_type": "U",
        "meta_norad_cat_id": 34321,
        "meta_element_set_no": 999,
        "meta_rev_at_epoch": 88574,
        "meta_bstar": 0.00044155698,
        "meta_mean_motion_dot": 1.688e-05,
        "meta_mean_motion_ddot": 0,
        "tle_line1": "1 34321U 93036NT  25352.78729148  .00001688  00000+0  44156-3 0  9992",
        "tle_line2": "2 34321  74.0277 144.9991 0015949 274.2278 201.0433 14.50080757885741"
      },
      "geometry": {
        "type": "Point",
        "coordinates": [
          -22.64387894010387,
          -40.344770105918094
        ]
      }
    },
    {
      "type": "Feature",
      "properties": {
        "norad_id": 34323,
        "name": "COSMOS 2251 DEB",
        "group": "cosmos-2251-debris",
        "lat": 46.67906259513803,
        "lon": -88.32660505427471,
        "alt_km": 603.6464198630838,
        "timestamp": "2025-12-19T16:54:44.657222+00:00",
        "meta_object_name": "COSMOS 2251 DEB",
        "meta_object_id": "1993-036NV",
        "meta_epoch": "2025-12-18T09:38:37.006944",
        "meta_mean_motion": 14.74606893,
        "meta_eccentricity": 0.00582637,
        "meta_inclination": 73.953,
        "meta_ra_of_asc_node": 112.0007,
        "meta_arg_of_pericenter": 154.7396,
        "meta_mean_anomaly": 262.6259,
        "meta_ephemeris_type": 0,
        "meta_classification_type": "U",
        "meta_norad_cat_id": 34323,
        "meta_element_set_no": 999,
        "meta_rev_at_epoch": 88523,
        "meta_bstar": 0.0020464281,
        "meta_mean_motion_dot": 0.00014016,
        "meta_mean_motion_ddot": 0,
        "tle_line1": "1 34323U 93036NV  25352.40181721  .00014016  00000+0  20464-2 0  9996",
        "tle_line2": "2 34323  73.9530 112.0007 0058263 154.7396 262.6259 14.74606893885230"
      },
      "geometry": {
        "type": "Point",
        "coordinates": [
          -88.32660505427471,
          46.67906259513803
        ]
      }
    },
    {
      "type": "Feature",
      "properties": {
        "norad_id": 34325,
        "name": "COSMOS 2251 DEB",
        "group": "cosmos-2251-debris",
        "lat": 29.117933525781982,
        "lon": -170.1888675973337,
        "alt_km": 1011.3143274073145,
        "timestamp": "2025-12-19T16:54:44.657232+00:00",
        "meta_object_name": "COSMOS 2251 DEB",
        "meta_object_id": "1993-036NX",
        "meta_epoch": "2025-12-18T22:18:04.081824",
        "meta_mean_motion": 14.04509128,
        "meta_eccentricity": 0.01917812,
        "meta_inclination": 73.87,
        "meta_ra_of_asc_node": 181.9013,
        "meta_arg_of_pericenter": 198.0624,
        "meta_mean_anomaly": 233.5562,
        "meta_ephemeris_type": 0,
        "meta_classification_type": "U",
        "meta_norad_cat_id": 34325,
        "meta_element_set_no": 999,
        "meta_rev_at_epoch": 85602,
        "meta_bstar": 0.0014853659,
        "meta_mean_motion_dot": 2.768e-05,
        "meta_mean_motion_ddot": 0,
        "tle_line1": "1 34325U 93036NX  25352.92921391  .00002768  00000+0  14854-2 0  9997",
        "tle_line2": "2 34325  73.8700 181.9013 0191781 198.0624 233.5562 14.04509128856025"
      },
      "geometry": {
        "type": "Point",
        "coordinates": [
          -170.1888675973337,
          29.117933525781982
        ]
      }
    },
    {
      "type": "Feature",
      "properties": {
        "norad_id": 34327,
        "name": "COSMOS 2251 DEB",
        "group": "cosmos-2251-debris",
        "lat": 9.899241249684948,
        "lon": -24.94362927524012,
        "alt_km": 623.578120737503,
        "timestamp": "2025-12-19T16:54:44.657242+00:00",
        "meta_object_name": "COSMOS 2251 DEB",
        "meta_object_id": "1993-036NZ",
        "meta_epoch": "2025-12-19T05:38:29.560704",
        "meta_mean_motion": 14.89315543,
        "meta_eccentricity": 0.00332834,
        "meta_inclination": 73.9926,
        "meta_ra_of_asc_node": 158.8688,
        "meta_arg_of_pericenter": 333.8981,
        "meta_mean_anomaly": 198.9676,
        "meta_ephemeris_type": 0,
        "meta_classification_type": "U",
        "meta_norad_cat_id": 34327,
        "meta_element_set_no": 999,
        "meta_rev_at_epoch": 89604,
        "meta_bstar": 0.00088590977,
        "meta_mean_motion_dot": 8.46e-05,
        "meta_mean_motion_ddot": 0,
        "tle_line1": "1 34327U 93036NZ  25353.23506436  .00008460  00000+0  88591-3 0  9998",
        "tle_line2": "2 34327  73.9926 158.8688 0033283 333.8981 198.9676 14.89315543896041"
      },
      "geometry": {
        "type": "Point",
        "coordinates": [
          -24.94362927524012,
          9.899241249684948
        ]
      }
    }
  ]
}